[{"OBJECT_NAME":"W-SERIES 4","OBJECT_ID":"2025-135R","EPOCH":"2026-03-09T19:54:39.716640","MEAN_MOTION":15.01503849,"ECCENTRICITY":0.04025811,"INCLINATION":97.4458,"RA_OF_ASC_NODE":182.1022,"ARG_OF_PERICENTER":65.9998,"MEAN_ANOMALY":298.2822,"EPHEMERIS_TYPE":0,"CLASSIFICATION_TYPE":"U","NORAD_CAT_ID":64543,"ELEMENT_SET_NO":999,"REV_AT_EPOCH":3954,"BSTAR":0.00063083397,"MEAN_MOTION_DOT":0.00052628,"MEAN_MOTION_DDOT":2.148409e-6},{"OBJECT_NAME":"SL-16 DEB","OBJECT_ID":"1992-093JG","EPOCH":"2026-03-09T21:00:52.546752","MEAN_MOTION":14.64504613,"ECCENTRICITY":0.00439234,"INCLINATION":71.1715,"RA_OF_ASC_NODE":319.3507,"ARG_OF_PERICENTER":116.2286,"MEAN_ANOMALY":323.8898,"EPHEMERIS_TYPE":0,"CLASSIFICATION_TYPE":"U","NORAD_CAT_ID":23282,"ELEMENT_SET_NO":999,"REV_AT_EPOCH":65998,"BSTAR":0.0029952064,"MEAN_MOTION_DOT":0.00016092,"MEAN_MOTION_DDOT":0}]
